$$SOE
2460728.500000000, A.D. 2025-Feb-22 00:00:00.0000, -4.565223723467467E+08, 2.449222799252589E+07, -1.501277257601753E+07,
2460735.500000000, A.D. 2025-Mar-01 00:00:00.0000, -4.574559493857368E+08, 1.498284485826897E+07, -1.717451027367333E+07,
2460742.500000000, A.D. 2025-Mar-08 00:00:00.0000, -4.581583861621352E+08, 5.465843914472940E+06, -1.932757123977715E+07,
2460749.500000000, A.D. 2025-Mar-15 00:00:00.0000, -4.586301937215480E+08, -4.053954389482534E+06, -2.147090456869068E+07,
2460756.500000000, A.D. 2025-Mar-22 00:00:00.0000, -4.588719634849378E+08, -1.357176186470315E+07, -2.360347033184306E+07,
2460763.500000000, A.D. 2025-Mar-29 00:00:00.0000, -4.588843666883282E+08, -2.308282438790362E+07, -2.572423957547177E+07,
2460770.500000000, A.D. 2025-Apr-05 00:00:00.0000, -4.586681521991403E+08, -3.258242278875861E+07, -2.783219439690867E+07,
2460777.500000000, A.D. 2025-Apr-12 00:00:00.0000, -4.582241446312174E+08, -4.206587272159424E+07, -2.992632791459998E+07,
2460784.500000000, A.D. 2025-Apr-19 00:00:00.0000, -4.575532429461272E+08, -5.152852440929922E+07, -3.200564418776149E+07,
2460791.500000000, A.D. 2025-Apr-26 00:00:00.0000, -4.566564192718081E+08, -6.096576246680637E+07, -3.406915812862793E+07,
2460798.500000000, A.D. 2025-May-03 00:00:00.0000, -4.555347178270675E+08, -7.037300578720666E+07, -3.611589541754512E+07,
2460805.500000000, A.D. 2025-May-10 00:00:00.0000, -4.541892539240455E+08, -7.974570748319463E+07, -3.814489242397165E+07,
2460812.500000000, A.D. 2025-May-17 00:00:00.0000, -4.526212130113454E+08, -8.907935492619166E+07, -4.015519614101085E+07,
2460819.500000000, A.D. 2025-May-24 00:00:00.0000, -4.508318495825593E+08, -9.836946993919198E+07, -4.214586415456523E+07,
2460826.500000000, A.D. 2025-May-31 00:00:00.0000, -4.488224855306016E+08, -1.076116088341923E+08, -4.411596466053765E+07,
2460833.500000000, A.D. 2025-Jun-07 00:00:00.0000, -4.465945083465680E+08, -1.168013610915266E+08, -4.606457639521894E+07,
2460840.500000000, A.D. 2025-Jun-14 00:00:00.0000, -4.441493715256407E+08, -1.259343473507643E+08, -4.799078831690332E+07,
2460847.500000000, A.D. 2025-Jun-21 00:00:00.0000, -4.414885959628677E+08, -1.350062199876968E+08, -4.989369941841475E+07,
2460854.500000000, A.D. 2025-Jun-28 00:00:00.0000, -4.386137692106149E+08, -1.440126645145880E+08, -5.177241881387474E+07,
2460861.500000000, A.D. 2025-Jul-05 00:00:00.0000, -4.355265441123658E+08, -1.529493996482983E+08, -5.362606578443702E+07,
2460868.500000000, A.D. 2025-Jul-12 00:00:00.0000, -4.322286380012029E+08, -1.618121768537867E+08, -5.545376973960833E+07,
2460875.500000000, A.D. 2025-Jul-19 00:00:00.0000, -4.287218322719952E+08, -1.705967799410232E+08, -5.725467015895658E+07,
2460882.500000000, A.D. 2025-Jul-26 00:00:00.0000, -4.250079721168781E+08, -1.792990247744582E+08, -5.902791653864218E+07,
2460889.500000000, A.D. 2025-Aug-02 00:00:00.0000, -4.210889663580555E+08, -1.879147590753721E+08, -6.077266834742095E+07,
2460896.500000000, A.D. 2025-Aug-09 00:00:00.0000, -4.169667873535367E+08, -1.964398623334826E+08, -6.248809499573044E+07,
2460903.500000000, A.D. 2025-Aug-16 00:00:00.0000, -4.126434708977201E+08, -2.048702458927824E+08, -6.417337583028466E+07,
2460910.500000000, A.D. 2025-Aug-23 00:00:00.0000, -4.081211158230464E+08, -2.132018531968851E+08, -6.582770017983449E+07,
2460917.500000000, A.D. 2025-Aug-30 00:00:00.0000, -4.034018829725031E+08, -2.214306594815042E+08, -6.745026742400284E+07,
2460924.500000000, A.D. 2025-Sep-06 00:00:00.0000, -3.984879949593923E+08, -2.295526699154870E+08, -6.904028687336327E+07,
2460931.500000000, A.D. 2025-Sep-13 00:00:00.0000, -3.933817383835173E+08, -2.375639186757190E+08, -7.059697751060095E+07,
2460938.500000000, A.D. 2025-Sep-20 00:00:00.0000, -3.880854652303830E+08, -2.454604706032951E+08, -7.211956802795933E+07,
2460945.500000000, A.D. 2025-Sep-27 00:00:00.0000, -3.826015923949170E+08, -2.532384223311634E+08, -7.360729700419632E+07,
2460952.500000000, A.D. 2025-Oct-04 00:00:00.0000, -3.769326013449414E+08, -2.608939023449724E+08, -7.505941299195810E+07,
2460959.500000000, A.D. 2025-Oct-11 00:00:00.0000, -3.710810382958709E+08, -2.684230709217428E+08, -7.647517455837592E+07,
2460966.500000000, A.D. 2025-Oct-18 00:00:00.0000, -3.650495146113081E+08, -2.758221202232788E+08, -7.785385032777706E+07,
2460973.500000000, A.D. 2025-Oct-25 00:00:00.0000, -3.588407072891725E+08, -2.830872745359570E+08, -7.919471903920832E+07,
2460980.500000000, A.D. 2025-Nov-01 00:00:00.0000, -3.524573594934665E+08, -2.902147906436511E+08, -8.049706962201022E+07,
2460987.500000000, A.D. 2025-Nov-08 00:00:00.0000, -3.459022810966083E+08, -2.972009583670338E+08, -8.176020129602207E+07,
2460994.500000000, A.D. 2025-Nov-15 00:00:00.0000, -3.391783490838237E+08, -3.040421013292971E+08, -8.298342371553339E+07,
2461001.500000000, A.D. 2025-Nov-22 00:00:00.0000, -3.322885074160241E+08, -3.107345777291955E+08, -8.416605717649475E+07,
2461008.500000000, A.D. 2025-Nov-29 00:00:00.0000, -3.252357665027563E+08, -3.172747799867558E+08, -8.530743278031626E+07,
2461015.500000000, A.D. 2025-Dec-06 00:00:00.0000, -3.180232045596091E+08, -3.236591333978770E+08, -8.640689235617398E+07,
2461022.500000000, A.D. 2025-Dec-13 00:00:00.0000, -3.106539704127271E+08, -3.298840971700012E+08, -8.746378845697874E+07,
2461029.500000000, A.D. 2025-Dec-20 00:00:00.0000, -3.031312842548373E+08, -3.359461668193729E+08, -8.847748466651605E+07,
2461036.500000000, A.D. 2025-Dec-27 00:00:00.0000, -2.954584374252366E+08, -3.418418753420810E+08, -8.944735590850970E+07,
2461043.500000000, A.D. 2026-Jan-03 00:00:00.0000, -2.876387926717368E+08, -3.475677937771176E+08, -9.037278867501904E+07,
2461050.500000000, A.D. 2026-Jan-10 00:00:00.0000, -2.796757847835222E+08, -3.531205318424897E+08, -9.125318124054493E+07,
2461057.500000000, A.D. 2026-Jan-17 00:00:00.0000, -2.715729213608618E+08, -3.584967387378600E+08, -9.208794389137016E+07,
2461064.500000000, A.D. 2026-Jan-24 00:00:00.0000, -2.633337836420794E+08, -3.636931040929023E+08, -9.287649917604458E+07,
2461071.500000000, A.D. 2026-Jan-31 00:00:00.0000, -2.549620273624979E+08, -3.687063590704842E+08, -9.361828218024974E+07,
2461078.500000000, A.D. 2026-Feb-07 00:00:00.0000, -2.464613835816566E+08, -3.735332776835706E+08, -9.431274083667937E+07,
2461085.500000000, A.D. 2026-Feb-14 00:00:00.0000, -2.378356592231843E+08, -3.781706783427520E+08, -9.495933629463801E+07,
2461092.500000000, A.D. 2026-Feb-21 00:00:00.0000, -2.290887369369536E+08, -3.826154250590909E+08, -9.555754333796385E+07,
2461099.500000000, A.D. 2026-Feb-28 00:00:00.0000, -2.202245753651749E+08, -3.868644271504394E+08, -9.610685065762462E+07,
2461106.500000000, A.D. 2026-Mar-07 00:00:00.0000, -2.112472118670022E+08, -3.909146394030120E+08, -9.660676094959660E+07,
2461113.500000000, A.D. 2026-Mar-14 00:00:00.0000, -2.021607649218820E+08, -3.947630650242051E+08, -9.705679128378400E+07,
2461120.500000000, A.D. 2026-Mar-21 00:00:00.0000, -1.929694344256794E+08, -3.984067584927272E+08, -9.745647367153974E+07,
2461127.500000000, A.D. 2026-Mar-28 00:00:00.0000, -1.836775018859534E+08, -4.018428272805372E+08, -9.780535556393428E+07,
2461134.500000000, A.D. 2026-Apr-04 00:00:00.0000, -1.742893311163668E+08, -4.050684334146740E+08, -9.810300030446176E+07,
2461141.500000000, A.D. 2026-Apr-11 00:00:00.0000, -1.648093691518888E+08, -4.080807952412751E+08, -9.834898759074311E+07,
2461148.500000000, A.D. 2026-Apr-18 00:00:00.0000, -1.552421472204156E+08, -4.108771894011132E+08, -9.854291396049237E+07,
2461155.500000000, A.D. 2026-Apr-25 00:00:00.0000, -1.455922817195444E+08, -4.134549530051417E+08, -9.868439330510786E+07,
2461162.500000000, A.D. 2026-May-02 00:00:00.0000, -1.358644751624432E+08, -4.158114860432007E+08, -9.877305741668418E+07,
2461169.500000000, A.D. 2026-May-09 00:00:00.0000, -1.260635169629416E+08, -4.179442540955139E+08, -9.880855658582780E+07,
2461176.500000000, A.D. 2026-May-16 00:00:00.0000, -1.161942836765042E+08, -4.198507912116556E+08, -9.879056027403972E+07,
2461183.500000000, A.D. 2026-May-23 00:00:00.0000, -1.062617386396613E+08, -4.215287019371094E+08, -9.871875778207660E+07,
2461190.500000000, A.D. 2026-May-30 00:00:00.0000, -9.627093308023727E+07, -4.229756621693439E+08, -9.859285869740161E+07,
2461197.500000000, A.D. 2026-Jun-06 00:00:00.0000, -8.622700900837341E+07, -4.241894221179519E+08, -9.841259335886496E+07,
2461204.500000000, A.D. 2026-Jun-13 00:00:00.0000, -7.613520021449444E+07, -4.251678111721050E+08, -9.817771365877846E+07,
2461211.500000000, A.D. 2026-Jun-20 00:00:00.0000, -6.600083186765044E+07, -4.259087417519566E+08, -9.788799389771315E+07,
2461218.500000000, A.D. 2026-Jun-27 00:00:00.0000, -5.582932040462641E+07, -4.264102124858804E+08, -9.754323156422818E+07,
2461225.500000000, A.D. 2026-Jul-04 00:00:00.0000, -4.562617370126166E+07, -4.266703114900751E+08, -9.714324810304984E+07,
2461232.500000000, A.D. 2026-Jul-11 00:00:00.0000, -3.539699126294570E+07, -4.266872198840469E+08, -9.668788970610553E+07,
2461239.500000000, A.D. 2026-Jul-18 00:00:00.0000, -2.514746433214581E+07, -4.264592155177554E+08, -9.617702813326335E+07,
2461246.500000000, A.D. 2026-Jul-25 00:00:00.0000, -1.488337587891227E+07, -4.259846769092308E+08, -9.561056156532958E+07,
2461253.500000000, A.D. 2026-Aug-01 00:00:00.0000, -4.610600416903259E+06, -4.252620874421883E+08, -9.498841549807441E+07,
2461260.500000000, A.D. 2026-Aug-08 00:00:00.0000, 5.664896578890823E+06, -4.242900398599806E+08, -9.431054369977340E+07,
2461267.500000000, A.D. 2026-Aug-15 00:00:00.0000, 1.593706007694330E+07, -4.230672406042005E+08, -9.357692923246726E+07,
2461274.500000000, A.D. 2026-Aug-22 00:00:00.0000, 2.619974696587098E+07, -4.215925127734663E+08, -9.278758536551803E+07,
2461281.500000000, A.D. 2026-Aug-29 00:00:00.0000, 3.644672532632031E+07, -4.198647990705215E+08, -9.194255628167906E+07,
2461288.500000000, A.D. 2026-Sep-05 00:00:00.0000, 4.667167364625075E+07, -4.178831676018673E+08, -9.104191800449944E+07,
$$EOE